{
"type": "FeatureCollection",
"name": "fasilitas_kesehatan_banyumas_clean",
"crs": { "type": "name", "properties": { "name": "urn:ogc:def:crs:OGC:1.3:CRS84" } },
"features": [
{ "type": "Feature", "properties": { "element": "node", "id": 2013668563, "amenity": "hospital", "designation": "Rumah Sakit Umum Wijayakusuma", "emergency": "yes", "name": "Wijayakusuma Hospital", "addr:city": null, "addr:district": null, "addr:neighbourhood": null, "addr:postcode": null, "addr:province": null, "addr:street": null, "addr:subdistrict": null, "healthcare": null, "healthcare:speciality": null, "website": null, "addr:housenumber": null, "mobile": null, "operator": null, "name:en": null, "opening_hours": null, "phone": null, "operator:type": null, "start_date": null, "contact:facebook": null, "email": null, "building": null, "source": null, "contact:phone": null, "health_amenity:type": null, "insurance:health": null, "operational_status": null, "url": null, "addr:full": null, "building:levels": null, "description": null, "wikidata": null, "wikipedia": null, "beds": null, "dispensing": null }, "geometry": { "type": "Point", "coordinates": [ 109.2457886, -7.4152177 ] } },
{ "type": "Feature", "properties": { "element": "node", "id": 2383993355, "amenity": "hospital", "designation": "Rumah Sakit Gigi dan Mulut Pendidikan Unsoed", "emergency": null, "name": "RSGMP UNSOED PURWOKERTO", "addr:city": "Banyumas", "addr:district": "Purwokerto Utara", "addr:neighbourhood": "Karangwangkal", "addr:postcode": "53122", "addr:province": "Jawa Tengah", "addr:street": "Jalan DR Soeparno", "addr:subdistrict": "Grendeng", "healthcare": "hospital", "healthcare:speciality": "dental_oral_maxillo_facial_surgery", "website": "https://rsgmp.unsoed.ac.id/", "addr:housenumber": null, "mobile": null, "operator": null, "name:en": null, "opening_hours": null, "phone": null, "operator:type": null, "start_date": null, "contact:facebook": null, "email": null, "building": null, "source": null, "contact:phone": null, "health_amenity:type": null, "insurance:health": null, "operational_status": null, "url": null, "addr:full": null, "building:levels": null, "description": null, "wikidata": null, "wikipedia": null, "beds": null, "dispensing": null }, "geometry": { "type": "Point", "coordinates": [ 109.2537127, -7.4103382 ] } },
{ "type": "Feature", "properties": { "element": "node", "id": 2385929437, "amenity": "hospital", "designation": null, "emergency": null, "name": "RS Wiradadi", "addr:city": null, "addr:district": null, "addr:neighbourhood": null, "addr:postcode": null, "addr:province": null, "addr:street": null, "addr:subdistrict": null, "healthcare": null, "healthcare:speciality": null, "website": null, "addr:housenumber": null, "mobile": null, "operator": null, "name:en": null, "opening_hours": null, "phone": null, "operator:type": null, "start_date": null, "contact:facebook": null, "email": null, "building": null, "source": null, "contact:phone": null, "health_amenity:type": null, "insurance:health": null, "operational_status": null, "url": null, "addr:full": null, "building:levels": null, "description": null, "wikidata": null, "wikipedia": null, "beds": null, "dispensing": null }, "geometry": { "type": "Point", "coordinates": [ 109.2716283, -7.4591935 ] } },
{ "type": "Feature", "properties": { "element": "node", "id": 2817178270, "amenity": "clinic", "designation": null, "emergency": null, "name": "Klinik Pratama Yos Sudarso", "addr:city": "Banyumas", "addr:district": "Sokaraja", "addr:neighbourhood": "Dusun II", "addr:postcode": "53181", "addr:province": "Jawa Tengah", "addr:street": "Jalan Sidodadi II", "addr:subdistrict": "Sokaraja Tengah", "healthcare": "clinic", "healthcare:speciality": "general", "website": null, "addr:housenumber": "07", "mobile": "02816440963", "operator": null, "name:en": null, "opening_hours": null, "phone": null, "operator:type": null, "start_date": null, "contact:facebook": null, "email": null, "building": null, "source": null, "contact:phone": null, "health_amenity:type": null, "insurance:health": null, "operational_status": null, "url": null, "addr:full": null, "building:levels": null, "description": null, "wikidata": null, "wikipedia": null, "beds": null, "dispensing": null }, "geometry": { "type": "Point", "coordinates": [ 109.2848685, -7.4556045 ] } },
{ "type": "Feature", "properties": { "element": "node", "id": 3683239681, "amenity": "clinic", "designation": null, "emergency": null, "name": "POSYANDU Nusa Indah 1", "addr:city": null, "addr:district": null, "addr:neighbourhood": null, "addr:postcode": null, "addr:province": null, "addr:street": null, "addr:subdistrict": null, "healthcare": null, "healthcare:speciality": null, "website": null, "addr:housenumber": null, "mobile": null, "operator": null, "name:en": null, "opening_hours": null, "phone": null, "operator:type": null, "start_date": null, "contact:facebook": null, "email": null, "building": null, "source": null, "contact:phone": null, "health_amenity:type": null, "insurance:health": null, "operational_status": null, "url": null, "addr:full": null, "building:levels": null, "description": null, "wikidata": null, "wikipedia": null, "beds": null, "dispensing": null }, "geometry": { "type": "Point", "coordinates": [ 109.2013063, -7.5352435 ] } },
{ "type": "Feature", "properties": { "element": "node", "id": 4296598989, "amenity": "hospital", "designation": null, "emergency": null, "name": "RSIA Bunda Arif", "addr:city": "Banyumas", "addr:district": "Purwokerto Timur", "addr:neighbourhood": null, "addr:postcode": "53114", "addr:province": "Jawa Tengah", "addr:street": "Jatiwinangun", "addr:subdistrict": "Kebondalem", "healthcare": "hospital", "healthcare:speciality": "general;child_psychiatry", "website": "https://rsbundaarif.co.id/", "addr:housenumber": "16", "mobile": "0281636555", "operator": "RSIA Bunda Arif", "name:en": null, "opening_hours": null, "phone": null, "operator:type": null, "start_date": null, "contact:facebook": null, "email": null, "building": null, "source": null, "contact:phone": null, "health_amenity:type": null, "insurance:health": null, "operational_status": null, "url": null, "addr:full": null, "building:levels": null, "description": null, "wikidata": null, "wikipedia": null, "beds": null, "dispensing": null }, "geometry": { "type": "Point", "coordinates": [ 109.2430604, -7.4207491 ] } },
{ "type": "Feature", "properties": { "element": "node", "id": 4747986623, "amenity": "hospital", "designation": null, "emergency": null, "name": "RSUD Banyumas", "addr:city": null, "addr:district": null, "addr:neighbourhood": null, "addr:postcode": null, "addr:province": null, "addr:street": null, "addr:subdistrict": null, "healthcare": null, "healthcare:speciality": null, "website": null, "addr:housenumber": null, "mobile": null, "operator": null, "name:en": null, "opening_hours": null, "phone": null, "operator:type": null, "start_date": null, "contact:facebook": null, "email": null, "building": null, "source": null, "contact:phone": null, "health_amenity:type": null, "insurance:health": null, "operational_status": null, "url": null, "addr:full": null, "building:levels": null, "description": null, "wikidata": null, "wikipedia": null, "beds": null, "dispensing": null }, "geometry": { "type": "Point", "coordinates": [ 109.2931963, -7.5287994 ] } },
{ "type": "Feature", "properties": { "element": "node", "id": 8164043809, "amenity": "hospital", "designation": null, "emergency": null, "name": "Puskesmas Patikraja", "addr:city": null, "addr:district": null, "addr:neighbourhood": null, "addr:postcode": null, "addr:province": null, "addr:street": null, "addr:subdistrict": null, "healthcare": "hospital", "healthcare:speciality": null, "website": null, "addr:housenumber": null, "mobile": null, "operator": null, "name:en": null, "opening_hours": null, "phone": null, "operator:type": null, "start_date": null, "contact:facebook": null, "email": null, "building": null, "source": null, "contact:phone": null, "health_amenity:type": null, "insurance:health": null, "operational_status": null, "url": null, "addr:full": null, "building:levels": null, "description": null, "wikidata": null, "wikipedia": null, "beds": null, "dispensing": null }, "geometry": { "type": "Point", "coordinates": [ 109.2144476, -7.4884062 ] } },
{ "type": "Feature", "properties": { "element": "node", "id": 8257659919, "amenity": "pharmacy", "designation": null, "emergency": null, "name": "Apotek Ramadhan", "addr:city": null, "addr:district": null, "addr:neighbourhood": null, "addr:postcode": null, "addr:province": null, "addr:street": "Jalan Raya Notog", "addr:subdistrict": null, "healthcare": null, "healthcare:speciality": null, "website": null, "addr:housenumber": "50", "mobile": null, "operator": null, "name:en": "Ramadhan Pharmacy", "opening_hours": "Mo-Su 07:00-21:00", "phone": "0811278676", "operator:type": null, "start_date": null, "contact:facebook": null, "email": null, "building": null, "source": null, "contact:phone": null, "health_amenity:type": null, "insurance:health": null, "operational_status": null, "url": null, "addr:full": null, "building:levels": null, "description": null, "wikidata": null, "wikipedia": null, "beds": null, "dispensing": null }, "geometry": { "type": "Point", "coordinates": [ 109.2148824, -7.4873794 ] } },
{ "type": "Feature", "properties": { "element": "node", "id": 9816603037, "amenity": "clinic", "designation": null, "emergency": null, "name": "Klinik Pratama Amanda", "addr:city": null, "addr:district": null, "addr:neighbourhood": null, "addr:postcode": null, "addr:province": null, "addr:street": null, "addr:subdistrict": null, "healthcare": "clinic", "healthcare:speciality": null, "website": null, "addr:housenumber": null, "mobile": null, "operator": null, "name:en": null, "opening_hours": null, "phone": null, "operator:type": null, "start_date": null, "contact:facebook": null, "email": null, "building": null, "source": null, "contact:phone": null, "health_amenity:type": null, "insurance:health": null, "operational_status": null, "url": null, "addr:full": null, "building:levels": null, "description": null, "wikidata": null, "wikipedia": null, "beds": null, "dispensing": null }, "geometry": { "type": "Point", "coordinates": [ 109.2582279, -7.4210485 ] } },
{ "type": "Feature", "properties": { "element": "node", "id": 12669324561, "amenity": "hospital", "designation": null, "emergency": null, "name": "RSU Dadi Keluarga", "addr:city": "Banyumas", "addr:district": "Purwokerto Selatan", "addr:neighbourhood": null, "addr:postcode": "53145", "addr:province": "Jawa Tengah", "addr:street": "Jalan Sultan Agung", "addr:subdistrict": "Teluk", "healthcare": "hospital", "healthcare:speciality": "general", "website": "https://rsdk-pwt.com/", "addr:housenumber": "8A", "mobile": "02816847366", "operator": "RSU DADI KELUARGA", "name:en": null, "opening_hours": null, "phone": null, "operator:type": "private_non_profit", "start_date": "2014-01-11", "contact:facebook": null, "email": null, "building": null, "source": null, "contact:phone": null, "health_amenity:type": null, "insurance:health": null, "operational_status": null, "url": null, "addr:full": null, "building:levels": null, "description": null, "wikidata": null, "wikipedia": null, "beds": null, "dispensing": null }, "geometry": { "type": "Point", "coordinates": [ 109.2529568, -7.447816 ] } },
{ "type": "Feature", "properties": { "element": "node", "id": 12669434849, "amenity": "hospital", "designation": null, "emergency": null, "name": "Rumah Sakit \"JIH\" Purwokerto", "addr:city": "Banyumas", "addr:district": "Kembaran", "addr:neighbourhood": null, "addr:postcode": "53182", "addr:province": "Jawa Tengah", "addr:street": "Jalan KH Ahmad Dahlan", "addr:subdistrict": "Dukuhwaluh", "healthcare": "hospital", "healthcare:speciality": "child_psychiatry;otolaryngology;vaccination", "website": "https://rs-jih.co.id/rsjihpurwokerto/", "addr:housenumber": "Dusun III", "mobile": "02817779888", "operator": "Rumah Sakit \"JIH\"", "name:en": null, "opening_hours": null, "phone": null, "operator:type": "private", "start_date": null, "contact:facebook": "https://www.facebook.com/people/Rumah-Sakit-JIH-Purwokerto/100075715463851/?ref=pages_you_manage", "email": "infopurwokerto@rs-jih.co.id", "building": null, "source": null, "contact:phone": null, "health_amenity:type": null, "insurance:health": null, "operational_status": null, "url": null, "addr:full": null, "building:levels": null, "description": null, "wikidata": null, "wikipedia": null, "beds": null, "dispensing": null }, "geometry": { "type": "Point", "coordinates": [ 109.2742978, -7.4104573 ] } },
{ "type": "Feature", "properties": { "element": "node", "id": 12669525481, "amenity": "hospital", "designation": null, "emergency": null, "name": "RS Jatiwinangun", "addr:city": "Banyumas", "addr:district": "Purwokerto Utara", "addr:neighbourhood": "Glempang", "addr:postcode": "53114", "addr:province": "Jawa Tengah", "addr:street": "Jatiwinangun", "addr:subdistrict": "BancarKembar", "healthcare": "hospital", "healthcare:speciality": "surgery", "website": "https://rsjatiwinangun.com/", "addr:housenumber": "80", "mobile": "0281632632", "operator": "RS Jatiwinangun", "name:en": null, "opening_hours": null, "phone": null, "operator:type": "private", "start_date": null, "contact:facebook": null, "email": null, "building": null, "source": null, "contact:phone": null, "health_amenity:type": null, "insurance:health": null, "operational_status": null, "url": null, "addr:full": null, "building:levels": null, "description": null, "wikidata": null, "wikipedia": null, "beds": null, "dispensing": null }, "geometry": { "type": "Point", "coordinates": [ 109.243684, -7.4171814 ] } },
{ "type": "Feature", "properties": { "element": "node", "id": 12670196780, "amenity": "clinic", "designation": null, "emergency": null, "name": "Klinik Utama Rawat Inap Amanda", "addr:city": "Banyumas", "addr:district": "Purwokerto Timur", "addr:neighbourhood": "Kepetek", "addr:postcode": "53111", "addr:province": "Jawa Tengah", "addr:street": "Jalan Martadiredja II", "addr:subdistrict": "Mersi", "healthcare": "clinic", "healthcare:speciality": "general;pulmonology", "website": "http://klinikamanda.simkeskhanza.com/epasien", "addr:housenumber": "32", "mobile": null, "operator": null, "name:en": null, "opening_hours": "24/7", "phone": null, "operator:type": null, "start_date": null, "contact:facebook": null, "email": null, "building": null, "source": null, "contact:phone": null, "health_amenity:type": null, "insurance:health": null, "operational_status": null, "url": null, "addr:full": null, "building:levels": null, "description": null, "wikidata": null, "wikipedia": null, "beds": null, "dispensing": null }, "geometry": { "type": "Point", "coordinates": [ 109.2611056, -7.4232016 ] } },
{ "type": "Feature", "properties": { "element": "node", "id": 12670241232, "amenity": "hospital", "designation": null, "emergency": "yes", "name": "Rumah Sakit Orthopaedi Purwokerto", "addr:city": "Banyumas", "addr:district": "Sokaraja", "addr:neighbourhood": "Dusun III", "addr:postcode": "53181", "addr:province": "Jawa Tengah", "addr:street": "Jalan Supardjo Rustam", "addr:subdistrict": "Sokaraja Kulon", "healthcare": "hospital", "healthcare:speciality": "orthopaedics", "website": "https://rsop.co.id/", "addr:housenumber": "99", "mobile": "02816844166", "operator": "Rumah Sakit Orthopaedi", "name:en": null, "opening_hours": "24/7", "phone": null, "operator:type": null, "start_date": null, "contact:facebook": null, "email": null, "building": null, "source": null, "contact:phone": null, "health_amenity:type": null, "insurance:health": null, "operational_status": null, "url": null, "addr:full": null, "building:levels": null, "description": null, "wikidata": null, "wikipedia": null, "beds": null, "dispensing": null }, "geometry": { "type": "Point", "coordinates": [ 109.2728972, -7.4428093 ] } },
{ "type": "Feature", "properties": { "element": "node", "id": 13387721993, "amenity": "dentist", "designation": null, "emergency": null, "name": "Praktek Dokter Gigi Adara Dental", "addr:city": "Banyumas", "addr:district": "Kembaran", "addr:neighbourhood": null, "addr:postcode": null, "addr:province": "Jawa Tengah", "addr:street": "Linggasari", "addr:subdistrict": "Linggasari", "healthcare": "dentist", "healthcare:speciality": "dentist", "website": null, "addr:housenumber": null, "mobile": null, "operator": "drg. Yolla Aldara", "name:en": null, "opening_hours": null, "phone": null, "operator:type": null, "start_date": null, "contact:facebook": null, "email": null, "building": null, "source": null, "contact:phone": null, "health_amenity:type": null, "insurance:health": null, "operational_status": null, "url": null, "addr:full": null, "building:levels": null, "description": null, "wikidata": null, "wikipedia": null, "beds": null, "dispensing": null }, "geometry": { "type": "Point", "coordinates": [ 109.289965, -7.3947773 ] } },
{ "type": "Feature", "properties": { "element": "way", "id": 196603786, "amenity": "pharmacy", "designation": null, "emergency": null, "name": "Omnia", "addr:city": null, "addr:district": null, "addr:neighbourhood": null, "addr:postcode": null, "addr:province": null, "addr:street": "Jalan Jenderal Gatot Subroto", "addr:subdistrict": null, "healthcare": null, "healthcare:speciality": null, "website": null, "addr:housenumber": null, "mobile": null, "operator": null, "name:en": null, "opening_hours": null, "phone": null, "operator:type": null, "start_date": null, "contact:facebook": null, "email": null, "building": "yes", "source": "foursquare", "contact:phone": null, "health_amenity:type": null, "insurance:health": null, "operational_status": null, "url": null, "addr:full": null, "building:levels": null, "description": null, "wikidata": null, "wikipedia": null, "beds": null, "dispensing": null }, "geometry": { "type": "Polygon", "coordinates": [ [ [ 109.2300733, -7.4196685 ], [ 109.2301699, -7.4196871 ], [ 109.2301645, -7.4197191 ], [ 109.2302209, -7.4197324 ], [ 109.2303251, -7.4192489 ], [ 109.2302101, -7.4192057 ], [ 109.230186, -7.4192669 ], [ 109.2302445, -7.4192829 ], [ 109.2302221, -7.4193845 ], [ 109.2301538, -7.4193706 ], [ 109.230091, -7.4195284 ], [ 109.2300733, -7.4196685 ] ] ] } },
{ "type": "Feature", "properties": { "element": "way", "id": 197761560, "amenity": "hospital", "designation": null, "emergency": "yes", "name": "RSUD Ajibarang", "addr:city": "Ajibarang, Banyumas, Jawa Tengah", "addr:district": null, "addr:neighbourhood": null, "addr:postcode": "53163", "addr:province": null, "addr:street": "Jalan Raya Pancasan", "addr:subdistrict": null, "healthcare": "hospital;laboratory;pharmacy", "healthcare:speciality": "general;orthopaedics;paediatrics;pharmacology;radiology;surgery;urology", "website": null, "addr:housenumber": null, "mobile": null, "operator": null, "name:en": null, "opening_hours": "24/7", "phone": null, "operator:type": "government", "start_date": null, "contact:facebook": null, "email": null, "building": null, "source": null, "contact:phone": "+622816570004", "health_amenity:type": "emergency_department;laboratory", "insurance:health": "public", "operational_status": "operational", "url": "http://rsudajibarang.banyumaskab.go.id/", "addr:full": null, "building:levels": null, "description": null, "wikidata": null, "wikipedia": null, "beds": null, "dispensing": null }, "geometry": { "type": "Polygon", "coordinates": [ [ [ 109.0779122, -7.4124769 ], [ 109.0795194, -7.4124993 ], [ 109.0793632, -7.413487 ], [ 109.0777641, -7.4133378 ], [ 109.0779122, -7.4124769 ] ] ] } },
{ "type": "Feature", "properties": { "element": "way", "id": 211917628, "amenity": "hospital", "designation": "RSU Elisabeth Purwokerto", "emergency": "yes", "name": "Rumah Sakit Umum Santa Elisabeth Purwokerto", "addr:city": "Kota Purwokerto", "addr:district": null, "addr:neighbourhood": null, "addr:postcode": null, "addr:province": null, "addr:street": "Doktor Angka", "addr:subdistrict": null, "healthcare": "hospital", "healthcare:speciality": "general", "website": "http://rsuelisabethpwt.com/", "addr:housenumber": null, "mobile": null, "operator": null, "name:en": null, "opening_hours": null, "phone": null, "operator:type": "private", "start_date": null, "contact:facebook": null, "email": null, "building": null, "source": "survey", "contact:phone": null, "health_amenity:type": null, "insurance:health": null, "operational_status": null, "url": null, "addr:full": "Jalan Dokter Angka No. 40 Sokanegara, Sitapen, Purwanegara, Kecamatan Purwokerto Timur, Kabupaten Banyumas, Jawa Tengah 53116", "building:levels": null, "description": null, "wikidata": null, "wikipedia": null, "beds": null, "dispensing": null }, "geometry": { "type": "Polygon", "coordinates": [ [ [ 109.2393282, -7.4176461 ], [ 109.2403691, -7.4178926 ], [ 109.2404857, -7.4171768 ], [ 109.2405919, -7.4165244 ], [ 109.2394844, -7.4163616 ], [ 109.2394602, -7.4164685 ], [ 109.2394415, -7.416515 ], [ 109.2393174, -7.4166906 ], [ 109.2393047, -7.4167251 ], [ 109.2392999, -7.4167697 ], [ 109.2393054, -7.4168149 ], [ 109.2393512, -7.4169393 ], [ 109.239359, -7.4169705 ], [ 109.2393629, -7.4170011 ], [ 109.239367, -7.4170656 ], [ 109.2393737, -7.4171081 ], [ 109.2393898, -7.4171434 ], [ 109.2394575, -7.4172159 ], [ 109.2394629, -7.4172368 ], [ 109.2394635, -7.4172604 ], [ 109.2394589, -7.4172864 ], [ 109.2394214, -7.4173655 ], [ 109.2393817, -7.4174419 ], [ 109.2393636, -7.4174842 ], [ 109.2393486, -7.4175304 ], [ 109.2393282, -7.4176461 ] ] ] } },
{ "type": "Feature", "properties": { "element": "way", "id": 211917643, "amenity": "hospital", "designation": "RSUD Margono Soekarjo Paviliun Abiyasa dan Pusat Geriatri", "emergency": "yes", "name": "RSUD Prof.Dr. Margono Soekarjo Paviliun Abiyasa Geriatri", "addr:city": "Banyumas", "addr:district": "Purwokerto Timur", "addr:neighbourhood": "KarangJengkol", "addr:postcode": "53131", "addr:province": "Jawa Tengah", "addr:street": "Jalan Doktor Angka", "addr:subdistrict": "Sokanegara", "healthcare": "hospital", "healthcare:speciality": "general;neurology;otolaryngology", "website": null, "addr:housenumber": "1", "mobile": null, "operator": "Margono Soekarjo", "name:en": null, "opening_hours": null, "phone": null, "operator:type": "government", "start_date": null, "contact:facebook": null, "email": null, "building": null, "source": "survey;gps", "contact:phone": null, "health_amenity:type": null, "insurance:health": null, "operational_status": null, "url": null, "addr:full": null, "building:levels": null, "description": null, "wikidata": null, "wikipedia": null, "beds": null, "dispensing": null }, "geometry": { "type": "Polygon", "coordinates": [ [ [ 109.2308647, -7.4172693 ], [ 109.2308564, -7.41715 ], [ 109.2308271, -7.4170353 ], [ 109.2307842, -7.4169289 ], [ 109.2307306, -7.4168517 ], [ 109.2306769, -7.4168012 ], [ 109.2306099, -7.4167693 ], [ 109.2305157, -7.4167347 ], [ 109.2305166, -7.4166354 ], [ 109.2305385, -7.4164167 ], [ 109.2305482, -7.4163482 ], [ 109.2305871, -7.4162862 ], [ 109.2306244, -7.4162111 ], [ 109.2307518, -7.4161908 ], [ 109.2310691, -7.4161684 ], [ 109.2319653, -7.4160513 ], [ 109.23201, -7.4160469 ], [ 109.2321633, -7.4160359 ], [ 109.2325297, -7.4160076 ], [ 109.2323882, -7.4164661 ], [ 109.2323746, -7.4165283 ], [ 109.2323158, -7.4167985 ], [ 109.2321625, -7.4175298 ], [ 109.2321575, -7.4175539 ], [ 109.2320717, -7.417913 ], [ 109.2319081, -7.4179954 ], [ 109.2318032, -7.4180943 ], [ 109.2317149, -7.4181923 ], [ 109.2316506, -7.4182721 ], [ 109.2315913, -7.4183257 ], [ 109.2315028, -7.4183735 ], [ 109.231385, -7.418405 ], [ 109.2312641, -7.4184001 ], [ 109.2311409, -7.4183625 ], [ 109.2310283, -7.4183013 ], [ 109.2309328, -7.4182344 ], [ 109.2308912, -7.4182028 ], [ 109.2308424, -7.4181569 ], [ 109.2308003, -7.4180981 ], [ 109.2307751, -7.4180404 ], [ 109.2307464, -7.4179001 ], [ 109.230744, -7.4177827 ], [ 109.2307654, -7.4176497 ], [ 109.2308295, -7.4174878 ], [ 109.230855, -7.4174018 ], [ 109.2308648, -7.4173197 ], [ 109.2308647, -7.4172693 ] ] ] } },
{ "type": "Feature", "properties": { "element": "way", "id": 211923817, "amenity": "hospital", "designation": "RS Bunda", "emergency": "yes", "name": "Rumah Sakit Umum Bunda", "addr:city": "Banyumas", "addr:district": "Purwokerto Selatan", "addr:neighbourhood": null, "addr:postcode": "53147", "addr:province": "Jawa Tengah", "addr:street": "Jalan Pramuka", "addr:subdistrict": "Pertabatan", "healthcare": "hospital", "healthcare:speciality": "orthopaedics", "website": "https://www.rsubundapwt.com/", "addr:housenumber": "249", "mobile": "0281635424", "operator": "Yayasan Bunda Purwokerto", "name:en": null, "opening_hours": null, "phone": null, "operator:type": "private", "start_date": null, "contact:facebook": null, "email": null, "building": null, "source": "survey;gps", "contact:phone": null, "health_amenity:type": null, "insurance:health": null, "operational_status": null, "url": null, "addr:full": null, "building:levels": null, "description": null, "wikidata": null, "wikipedia": null, "beds": null, "dispensing": null }, "geometry": { "type": "Polygon", "coordinates": [ [ [ 109.2536265, -7.4288753 ], [ 109.253674, -7.4288723 ], [ 109.2536881, -7.4291036 ], [ 109.2536505, -7.4291057 ], [ 109.2534938, -7.4291152 ], [ 109.2533238, -7.4291215 ], [ 109.2533228, -7.4290886 ], [ 109.2533093, -7.4288947 ], [ 109.2534218, -7.428887 ], [ 109.2535376, -7.4288782 ], [ 109.2536265, -7.4288753 ] ] ] } },
{ "type": "Feature", "properties": { "element": "way", "id": 211923833, "amenity": "hospital", "designation": "RS Ananda", "emergency": "yes", "name": "Ananda Hospital", "addr:city": null, "addr:district": null, "addr:neighbourhood": null, "addr:postcode": null, "addr:province": null, "addr:street": null, "addr:subdistrict": null, "healthcare": "hospital", "healthcare:speciality": null, "website": null, "addr:housenumber": null, "mobile": null, "operator": null, "name:en": null, "opening_hours": null, "phone": null, "operator:type": null, "start_date": null, "contact:facebook": null, "email": null, "building": null, "source": "survey", "contact:phone": null, "health_amenity:type": null, "insurance:health": null, "operational_status": null, "url": null, "addr:full": null, "building:levels": null, "description": null, "wikidata": null, "wikipedia": null, "beds": null, "dispensing": null }, "geometry": { "type": "Polygon", "coordinates": [ [ [ 109.2240807, -7.4185038 ], [ 109.2240945, -7.4184457 ], [ 109.224199, -7.4184047 ], [ 109.22441, -7.4183261 ], [ 109.224308, -7.4186631 ], [ 109.2242532, -7.4187976 ], [ 109.2242155, -7.4188068 ], [ 109.2239696, -7.4188338 ], [ 109.2240807, -7.4185038 ] ] ] } },
{ "type": "Feature", "properties": { "element": "way", "id": 216030686, "amenity": "clinic", "designation": null, "emergency": "no", "name": "Puskesmas Sokaraja 1", "addr:city": null, "addr:district": null, "addr:neighbourhood": null, "addr:postcode": null, "addr:province": null, "addr:street": null, "addr:subdistrict": null, "healthcare": "clinic", "healthcare:speciality": null, "website": null, "addr:housenumber": null, "mobile": null, "operator": null, "name:en": null, "opening_hours": null, "phone": null, "operator:type": null, "start_date": null, "contact:facebook": null, "email": null, "building": "yes", "source": null, "contact:phone": null, "health_amenity:type": null, "insurance:health": null, "operational_status": null, "url": null, "addr:full": null, "building:levels": null, "description": null, "wikidata": null, "wikipedia": null, "beds": null, "dispensing": null }, "geometry": { "type": "Polygon", "coordinates": [ [ [ 109.3000114, -7.4566435 ], [ 109.2998394, -7.4571047 ], [ 109.299916, -7.4571328 ], [ 109.3000265, -7.4568366 ], [ 109.3000478, -7.4568444 ], [ 109.3000286, -7.4568958 ], [ 109.3000856, -7.4569167 ], [ 109.3001016, -7.4568738 ], [ 109.300188, -7.4569055 ], [ 109.3001787, -7.4569305 ], [ 109.3002379, -7.4569523 ], [ 109.3002592, -7.4569601 ], [ 109.3003466, -7.4567259 ], [ 109.3001598, -7.4566574 ], [ 109.3001444, -7.4566989 ], [ 109.3002374, -7.456733 ], [ 109.3002111, -7.4568035 ], [ 109.3000577, -7.4567472 ], [ 109.3000862, -7.4566709 ], [ 109.3000114, -7.4566435 ] ] ] } },
{ "type": "Feature", "properties": { "element": "way", "id": 219204405, "amenity": "hospital", "designation": null, "emergency": null, "name": "Puskesmas Sokaraja 2", "addr:city": null, "addr:district": null, "addr:neighbourhood": null, "addr:postcode": null, "addr:province": null, "addr:street": null, "addr:subdistrict": null, "healthcare": "hospital", "healthcare:speciality": null, "website": null, "addr:housenumber": null, "mobile": null, "operator": null, "name:en": null, "opening_hours": null, "phone": null, "operator:type": null, "start_date": null, "contact:facebook": null, "email": null, "building": null, "source": null, "contact:phone": null, "health_amenity:type": null, "insurance:health": null, "operational_status": null, "url": null, "addr:full": null, "building:levels": null, "description": null, "wikidata": null, "wikipedia": null, "beds": null, "dispensing": null }, "geometry": { "type": "Polygon", "coordinates": [ [ [ 109.3224995, -7.4436188 ], [ 109.3225022, -7.4437106 ], [ 109.3225049, -7.4437996 ], [ 109.3224298, -7.4437996 ], [ 109.3223815, -7.4438422 ], [ 109.322381, -7.443789 ], [ 109.3223225, -7.4438049 ], [ 109.3223225, -7.44364 ], [ 109.3223654, -7.4436347 ], [ 109.3223708, -7.4437305 ], [ 109.3224239, -7.4436081 ], [ 109.3224995, -7.4436188 ] ] ] } },
{ "type": "Feature", "properties": { "element": "way", "id": 259490874, "amenity": "hospital", "designation": null, "emergency": null, "name": "Rumah Sakit Paru-paru", "addr:city": null, "addr:district": null, "addr:neighbourhood": null, "addr:postcode": null, "addr:province": null, "addr:street": null, "addr:subdistrict": null, "healthcare": null, "healthcare:speciality": null, "website": null, "addr:housenumber": null, "mobile": null, "operator": null, "name:en": null, "opening_hours": null, "phone": null, "operator:type": null, "start_date": null, "contact:facebook": null, "email": null, "building": "yes", "source": null, "contact:phone": null, "health_amenity:type": null, "insurance:health": null, "operational_status": null, "url": null, "addr:full": null, "building:levels": null, "description": null, "wikidata": null, "wikipedia": null, "beds": null, "dispensing": null }, "geometry": { "type": "Polygon", "coordinates": [ [ [ 109.2296272, -7.4141839 ], [ 109.2296121, -7.4144107 ], [ 109.2296068, -7.4144905 ], [ 109.2296225, -7.4144916 ], [ 109.2298918, -7.4145106 ], [ 109.229895, -7.4144232 ], [ 109.2299012, -7.4142561 ], [ 109.2299033, -7.4141978 ], [ 109.2296272, -7.4141839 ] ] ] } },
{ "type": "Feature", "properties": { "element": "way", "id": 259553282, "amenity": "doctors", "designation": null, "emergency": null, "name": null, "addr:city": null, "addr:district": null, "addr:neighbourhood": null, "addr:postcode": null, "addr:province": null, "addr:street": null, "addr:subdistrict": null, "healthcare": null, "healthcare:speciality": null, "website": null, "addr:housenumber": null, "mobile": null, "operator": null, "name:en": null, "opening_hours": null, "phone": null, "operator:type": null, "start_date": null, "contact:facebook": null, "email": null, "building": "yes", "source": null, "contact:phone": null, "health_amenity:type": null, "insurance:health": null, "operational_status": null, "url": null, "addr:full": null, "building:levels": null, "description": null, "wikidata": null, "wikipedia": null, "beds": null, "dispensing": null }, "geometry": { "type": "Polygon", "coordinates": [ [ [ 109.2351213, -7.4161235 ], [ 109.2352746, -7.4161414 ], [ 109.2352603, -7.4162615 ], [ 109.2351984, -7.4162543 ], [ 109.2351945, -7.416287 ], [ 109.2351077, -7.4162769 ], [ 109.2351117, -7.4162429 ], [ 109.2351072, -7.4162424 ], [ 109.2351213, -7.4161235 ] ] ] } },
{ "type": "Feature", "properties": { "element": "way", "id": 288739203, "amenity": "hospital", "designation": null, "emergency": null, "name": "Instalasi Gawat Darurat RSUD Margono Sukardjo", "addr:city": "Banyumas", "addr:district": "Purwokerto Selatan", "addr:neighbourhood": null, "addr:postcode": "53146", "addr:province": "Jawa Tengah", "addr:street": "Doktor Gumbreg", "addr:subdistrict": "Berkoh", "healthcare": null, "healthcare:speciality": null, "website": null, "addr:housenumber": "1", "mobile": null, "operator": null, "name:en": null, "opening_hours": null, "phone": "+62 281 632708", "operator:type": null, "start_date": null, "contact:facebook": null, "email": null, "building": "hospital", "source": null, "contact:phone": null, "health_amenity:type": null, "insurance:health": null, "operational_status": null, "url": null, "addr:full": null, "building:levels": "2", "description": null, "wikidata": null, "wikipedia": null, "beds": null, "dispensing": null }, "geometry": { "type": "Polygon", "coordinates": [ [ [ 109.2662886, -7.4366535 ], [ 109.2662866, -7.4368525 ], [ 109.266405, -7.4368536 ], [ 109.2664478, -7.436854 ], [ 109.2664472, -7.4369183 ], [ 109.2665372, -7.4369192 ], [ 109.2665378, -7.4368606 ], [ 109.2667777, -7.4368629 ], [ 109.2667797, -7.4366582 ], [ 109.2662886, -7.4366535 ] ] ] } },
{ "type": "Feature", "properties": { "element": "way", "id": 288741950, "amenity": "hospital", "designation": null, "emergency": null, "name": "RSUD Prof. Dr. Margono Soekarjo", "addr:city": "Banyumas", "addr:district": "Purwokerto Selatan", "addr:neighbourhood": null, "addr:postcode": "53146", "addr:province": "Banyumas", "addr:street": "Jalan Dokter Gumbreg", "addr:subdistrict": "Berkoh", "healthcare": null, "healthcare:speciality": null, "website": null, "addr:housenumber": "1", "mobile": null, "operator": null, "name:en": null, "opening_hours": null, "phone": null, "operator:type": null, "start_date": null, "contact:facebook": null, "email": null, "building": "hospital", "source": null, "contact:phone": null, "health_amenity:type": null, "insurance:health": null, "operational_status": null, "url": null, "addr:full": null, "building:levels": null, "description": "RSUD Prof. Dr. Margono Soekarjo Purwokerto adalah RSUD Kelas A Pendidikan milik Pemerintah Provinsi Jawa Tengah yang beroperasi sebagai BLUD sejak 2009. Berawal dari RS Zending era Belanda, berkembang menjadi RS rujukan dengan visi prima dalam pelayanan s", "wikidata": "Q12497019", "wikipedia": "id:Margono Sukarjo", "beds": null, "dispensing": null }, "geometry": { "type": "Polygon", "coordinates": [ [ [ 109.267926, -7.43704 ], [ 109.2679196, -7.4369383 ], [ 109.2680926, -7.4369447 ], [ 109.2680972, -7.4370546 ], [ 109.268028, -7.4371475 ], [ 109.2680907, -7.4372093 ], [ 109.2679901, -7.4373069 ], [ 109.2679488, -7.4372628 ], [ 109.2678752, -7.4373526 ], [ 109.2678034, -7.4373597 ], [ 109.2678015, -7.4374333 ], [ 109.2676485, -7.4375797 ], [ 109.2675258, -7.4375799 ], [ 109.2675223, -7.4377008 ], [ 109.2673301, -7.4376945 ], [ 109.2673299, -7.437577 ], [ 109.2672019, -7.4375737 ], [ 109.2670737, -7.4374212 ], [ 109.2670737, -7.4373323 ], [ 109.2669968, -7.4373196 ], [ 109.2669456, -7.437256 ], [ 109.2668815, -7.4373005 ], [ 109.2667854, -7.4371798 ], [ 109.2668238, -7.4371226 ], [ 109.266779, -7.4370654 ], [ 109.2667773, -7.4370045 ], [ 109.266779, -7.4369066 ], [ 109.2669456, -7.4369129 ], [ 109.2669584, -7.4370336 ], [ 109.2670801, -7.4371607 ], [ 109.2673557, -7.437173 ], [ 109.2673598, -7.4371072 ], [ 109.2675067, -7.4371083 ], [ 109.2675074, -7.4371777 ], [ 109.2677864, -7.4371797 ], [ 109.267639, -7.4373293 ], [ 109.2672023, -7.4373233 ], [ 109.2672749, -7.4374208 ], [ 109.2673472, -7.4374215 ], [ 109.2673531, -7.4373759 ], [ 109.2674872, -7.4373716 ], [ 109.2674886, -7.4374406 ], [ 109.2675657, -7.4374094 ], [ 109.267926, -7.43704 ] ] ] } },
{ "type": "Feature", "properties": { "element": "way", "id": 288757007, "amenity": "hospital", "designation": null, "emergency": "yes", "name": "RSUD Margono Soekarjo Purwokerto", "addr:city": "Purwokerto Selatan", "addr:district": null, "addr:neighbourhood": null, "addr:postcode": "53146", "addr:province": null, "addr:street": "Jalan Dr. Gumbreg", "addr:subdistrict": null, "healthcare": "hospital", "healthcare:speciality": "anatomy;cardiac_surgery;dental_oral_maxillo_facial_surgery;dermatology;emergency;general;geriatrics;gynaecology;haematology;hepatology;microbiology;neurology;neurosurgery;nuclear;oncology;orthodontics;paediatric_surgery;pathology;radiotherapy;surgery", "website": "https://www.rsmargono.go.id/", "addr:housenumber": "1", "mobile": null, "operator": null, "name:en": null, "opening_hours": "24/7", "phone": "+62 281 632708", "operator:type": "government", "start_date": null, "contact:facebook": null, "email": null, "building": null, "source": null, "contact:phone": "+62281632708", "health_amenity:type": "dialysis;emergency_department;imaging_equipment;intensive_care_unit;laboratory;ultrasound;x_ray", "insurance:health": "public", "operational_status": "operational", "url": "https://www.rsmargono.go.id/", "addr:full": "Jalan Dr. Gumbreg Nomor 1, Purwokerto", "building:levels": null, "description": null, "wikidata": null, "wikipedia": null, "beds": "700", "dispensing": null }, "geometry": { "type": "Polygon", "coordinates": [ [ [ 109.2664652, -7.4379773 ], [ 109.2675737, -7.4384284 ], [ 109.2676699, -7.4384412 ], [ 109.2677596, -7.4384475 ], [ 109.2678365, -7.4384284 ], [ 109.2678877, -7.438384 ], [ 109.2679198, -7.4383077 ], [ 109.2688937, -7.4361029 ], [ 109.2685479, -7.4344598 ], [ 109.2674007, -7.4346479 ], [ 109.2673046, -7.4347432 ], [ 109.266792, -7.4348576 ], [ 109.2670291, -7.4351753 ], [ 109.2661334, -7.4354434 ], [ 109.2659609, -7.4355081 ], [ 109.2658252, -7.4355594 ], [ 109.2656898, -7.4355883 ], [ 109.265952, -7.4363006 ], [ 109.2659645, -7.4363305 ], [ 109.2661057, -7.4366813 ], [ 109.2661768, -7.436859 ], [ 109.2662473, -7.4369671 ], [ 109.2662986, -7.4371196 ], [ 109.2664127, -7.4377069 ], [ 109.2664331, -7.4378121 ], [ 109.2664446, -7.4378713 ], [ 109.2664652, -7.4379773 ] ] ] } },
{ "type": "Feature", "properties": { "element": "way", "id": 315574860, "amenity": "hospital", "designation": null, "emergency": null, "name": "UDD PMI Banyumas", "addr:city": "Sokaraja", "addr:district": null, "addr:neighbourhood": null, "addr:postcode": null, "addr:province": null, "addr:street": "Jalan Pekaja", "addr:subdistrict": null, "healthcare": null, "healthcare:speciality": null, "website": null, "addr:housenumber": null, "mobile": null, "operator": "PMI", "name:en": null, "opening_hours": null, "phone": null, "operator:type": null, "start_date": null, "contact:facebook": null, "email": null, "building": null, "source": null, "contact:phone": null, "health_amenity:type": null, "insurance:health": null, "operational_status": null, "url": null, "addr:full": null, "building:levels": null, "description": null, "wikidata": null, "wikipedia": null, "beds": null, "dispensing": null }, "geometry": { "type": "Polygon", "coordinates": [ [ [ 109.2869525, -7.4605769 ], [ 109.2864885, -7.4611407 ], [ 109.2860325, -7.4608508 ], [ 109.2864536, -7.4603349 ], [ 109.2869525, -7.4605769 ] ] ] } },
{ "type": "Feature", "properties": { "element": "way", "id": 364278016, "amenity": "clinic", "designation": null, "emergency": null, "name": "Puskesmas Kebasen", "addr:city": "Kebasen", "addr:district": null, "addr:neighbourhood": null, "addr:postcode": null, "addr:province": null, "addr:street": null, "addr:subdistrict": null, "healthcare": "clinic", "healthcare:speciality": "general", "website": null, "addr:housenumber": null, "mobile": null, "operator": null, "name:en": null, "opening_hours": null, "phone": null, "operator:type": null, "start_date": null, "contact:facebook": null, "email": null, "building": "yes", "source": null, "contact:phone": null, "health_amenity:type": null, "insurance:health": null, "operational_status": null, "url": null, "addr:full": null, "building:levels": null, "description": null, "wikidata": null, "wikipedia": null, "beds": null, "dispensing": null }, "geometry": { "type": "Polygon", "coordinates": [ [ [ 109.1983265, -7.5340105 ], [ 109.1983229, -7.5341084 ], [ 109.1984761, -7.5341139 ], [ 109.1984861, -7.5338397 ], [ 109.1984074, -7.5338368 ], [ 109.1984009, -7.5340131 ], [ 109.1983265, -7.5340105 ] ] ] } },
{ "type": "Feature", "properties": { "element": "way", "id": 398840656, "amenity": "hospital", "designation": null, "emergency": null, "name": "RS Amelia", "addr:city": null, "addr:district": null, "addr:neighbourhood": null, "addr:postcode": null, "addr:province": null, "addr:street": null, "addr:subdistrict": null, "healthcare": "hospital", "healthcare:speciality": null, "website": null, "addr:housenumber": null, "mobile": null, "operator": null, "name:en": null, "opening_hours": null, "phone": null, "operator:type": null, "start_date": null, "contact:facebook": null, "email": null, "building": null, "source": null, "contact:phone": null, "health_amenity:type": null, "insurance:health": null, "operational_status": null, "url": null, "addr:full": null, "building:levels": null, "description": null, "wikidata": null, "wikipedia": null, "beds": null, "dispensing": null }, "geometry": { "type": "Polygon", "coordinates": [ [ [ 109.2992922, -7.5285811 ], [ 109.3002491, -7.5285929 ], [ 109.3002491, -7.5300943 ], [ 109.2992724, -7.5300708 ], [ 109.2992922, -7.5285811 ] ] ] } },
{ "type": "Feature", "properties": { "element": "way", "id": 787899959, "amenity": "hospital", "designation": null, "emergency": "yes", "name": "RSUD Banyumas", "addr:city": "Kejawar, Banyumas, Jawa Tengah", "addr:district": null, "addr:neighbourhood": null, "addr:postcode": "53192", "addr:province": null, "addr:street": "Jalan Rumah Sakit", "addr:subdistrict": null, "healthcare": "hospital", "healthcare:speciality": "biological_haematology;cardiology;child_psychiatry;general;hepatology;intensive;neurosurgery;oncology;paediatrics;surgery", "website": "rsudbms.banyumaskab.go.id", "addr:housenumber": "1", "mobile": null, "operator": null, "name:en": null, "opening_hours": "24/7", "phone": "(0281) 796031", "operator:type": null, "start_date": null, "contact:facebook": null, "email": null, "building": null, "source": null, "contact:phone": "+62281796182", "health_amenity:type": "dialysis;emergency_department;intensive_care_unit;laboratory;operating_theater;ultrasound", "insurance:health": "public", "operational_status": "operational", "url": "http://rsudbms.banyumaskab.go.id/", "addr:full": null, "building:levels": null, "description": null, "wikidata": null, "wikipedia": null, "beds": null, "dispensing": "yes" }, "geometry": { "type": "Polygon", "coordinates": [ [ [ 109.293003, -7.5304939 ], [ 109.2922949, -7.5305298 ], [ 109.2922466, -7.531301 ], [ 109.2914768, -7.531273 ], [ 109.2913105, -7.5312305 ], [ 109.2912877, -7.5312704 ], [ 109.2904576, -7.5310789 ], [ 109.2906078, -7.5307266 ], [ 109.2907057, -7.5307519 ], [ 109.2907687, -7.530595 ], [ 109.2913937, -7.5307332 ], [ 109.2916133, -7.5307612 ], [ 109.2919832, -7.5284279 ], [ 109.2930485, -7.5283928 ], [ 109.2930573, -7.5289314 ], [ 109.2930379, -7.5297753 ], [ 109.2930166, -7.5302349 ], [ 109.293003, -7.5304939 ] ] ] } },
{ "type": "Feature", "properties": { "element": "way", "id": 794212180, "amenity": "pharmacy", "designation": null, "emergency": null, "name": "Toko Obat Berkat", "addr:city": null, "addr:district": null, "addr:neighbourhood": null, "addr:postcode": null, "addr:province": null, "addr:street": null, "addr:subdistrict": null, "healthcare": "pharmacy", "healthcare:speciality": null, "website": null, "addr:housenumber": null, "mobile": null, "operator": null, "name:en": null, "opening_hours": null, "phone": null, "operator:type": null, "start_date": null, "contact:facebook": null, "email": null, "building": "pharmacy", "source": null, "contact:phone": null, "health_amenity:type": null, "insurance:health": null, "operational_status": null, "url": null, "addr:full": null, "building:levels": null, "description": null, "wikidata": null, "wikipedia": null, "beds": null, "dispensing": null }, "geometry": { "type": "Polygon", "coordinates": [ [ [ 109.2441508, -7.4273625 ], [ 109.2441601, -7.4276412 ], [ 109.2442519, -7.4276381 ], [ 109.2442543, -7.4277101 ], [ 109.2443343, -7.4277075 ], [ 109.2443242, -7.4274049 ], [ 109.244262, -7.4274069 ], [ 109.2442604, -7.4273588 ], [ 109.2441508, -7.4273625 ] ] ] } },
{ "type": "Feature", "properties": { "element": "way", "id": 794272449, "amenity": "pharmacy", "designation": null, "emergency": null, "name": "Apotek Marem", "addr:city": null, "addr:district": null, "addr:neighbourhood": null, "addr:postcode": null, "addr:province": null, "addr:street": null, "addr:subdistrict": null, "healthcare": null, "healthcare:speciality": null, "website": null, "addr:housenumber": null, "mobile": null, "operator": null, "name:en": null, "opening_hours": null, "phone": null, "operator:type": null, "start_date": null, "contact:facebook": null, "email": null, "building": "pharmacy", "source": null, "contact:phone": null, "health_amenity:type": null, "insurance:health": null, "operational_status": null, "url": null, "addr:full": null, "building:levels": null, "description": null, "wikidata": null, "wikipedia": null, "beds": null, "dispensing": null }, "geometry": { "type": "Polygon", "coordinates": [ [ [ 109.2916627, -7.5284433 ], [ 109.291755, -7.5284797 ], [ 109.2918041, -7.5283571 ], [ 109.2917118, -7.5283208 ], [ 109.2916627, -7.5284433 ] ] ] } },
{ "type": "Feature", "properties": { "element": "way", "id": 854314411, "amenity": null, "designation": null, "emergency": null, "name": "Kilinik Utama Purwokerto Katarak Center", "addr:city": null, "addr:district": null, "addr:neighbourhood": null, "addr:postcode": null, "addr:province": null, "addr:street": null, "addr:subdistrict": null, "healthcare": "hospital", "healthcare:speciality": null, "website": null, "addr:housenumber": null, "mobile": null, "operator": null, "name:en": null, "opening_hours": null, "phone": null, "operator:type": null, "start_date": null, "contact:facebook": null, "email": null, "building": "yes", "source": null, "contact:phone": null, "health_amenity:type": null, "insurance:health": null, "operational_status": null, "url": null, "addr:full": null, "building:levels": null, "description": null, "wikidata": null, "wikipedia": null, "beds": null, "dispensing": null }, "geometry": { "type": "Polygon", "coordinates": [ [ [ 109.2432624, -7.4172392 ], [ 109.2433545, -7.4172402 ], [ 109.2433528, -7.4173845 ], [ 109.2432608, -7.4173835 ], [ 109.2432624, -7.4172392 ] ] ] } },
{ "type": "Feature", "properties": { "element": "way", "id": 879036608, "amenity": "hospital", "designation": null, "emergency": null, "name": null, "addr:city": null, "addr:district": null, "addr:neighbourhood": null, "addr:postcode": null, "addr:province": null, "addr:street": null, "addr:subdistrict": null, "healthcare": "hospital", "healthcare:speciality": null, "website": null, "addr:housenumber": null, "mobile": null, "operator": null, "name:en": null, "opening_hours": null, "phone": null, "operator:type": null, "start_date": null, "contact:facebook": null, "email": null, "building": null, "source": null, "contact:phone": null, "health_amenity:type": null, "insurance:health": null, "operational_status": null, "url": null, "addr:full": null, "building:levels": null, "description": null, "wikidata": null, "wikipedia": null, "beds": null, "dispensing": null }, "geometry": { "type": "Polygon", "coordinates": [ [ [ 109.2527113, -7.4484841 ], [ 109.252736, -7.4480938 ], [ 109.2527985, -7.4480967 ], [ 109.2529059, -7.4481125 ], [ 109.25289, -7.4485115 ], [ 109.2527113, -7.4484841 ] ] ] } },
{ "type": "Feature", "properties": { "element": "way", "id": 879046876, "amenity": "hospital", "designation": null, "emergency": null, "name": null, "addr:city": null, "addr:district": null, "addr:neighbourhood": null, "addr:postcode": null, "addr:province": null, "addr:street": null, "addr:subdistrict": null, "healthcare": "hospital", "healthcare:speciality": null, "website": null, "addr:housenumber": null, "mobile": null, "operator": null, "name:en": null, "opening_hours": null, "phone": null, "operator:type": null, "start_date": null, "contact:facebook": null, "email": null, "building": null, "source": null, "contact:phone": null, "health_amenity:type": null, "insurance:health": null, "operational_status": null, "url": null, "addr:full": null, "building:levels": null, "description": null, "wikidata": null, "wikipedia": null, "beds": null, "dispensing": null }, "geometry": { "type": "Polygon", "coordinates": [ [ [ 109.25303, -7.4485395 ], [ 109.25303, -7.448488 ], [ 109.2530548, -7.4484915 ], [ 109.2530583, -7.4483968 ], [ 109.2530335, -7.4483172 ], [ 109.2529108, -7.448309 ], [ 109.252899, -7.4485289 ], [ 109.2529645, -7.4485342 ], [ 109.25303, -7.4485395 ] ] ] } },
{ "type": "Feature", "properties": { "element": "way", "id": 881103557, "amenity": "clinic", "designation": null, "emergency": null, "name": "Pos Kesehatan Desa Kemutug Lor", "addr:city": null, "addr:district": null, "addr:neighbourhood": null, "addr:postcode": null, "addr:province": null, "addr:street": null, "addr:subdistrict": null, "healthcare": null, "healthcare:speciality": null, "website": null, "addr:housenumber": null, "mobile": null, "operator": null, "name:en": null, "opening_hours": null, "phone": null, "operator:type": null, "start_date": null, "contact:facebook": null, "email": null, "building": "yes", "source": null, "contact:phone": null, "health_amenity:type": null, "insurance:health": null, "operational_status": null, "url": null, "addr:full": null, "building:levels": null, "description": null, "wikidata": null, "wikipedia": null, "beds": null, "dispensing": null }, "geometry": { "type": "Polygon", "coordinates": [ [ [ 109.2352007, -7.3334507 ], [ 109.2352037, -7.3335049 ], [ 109.2353361, -7.3334976 ], [ 109.2353319, -7.333423 ], [ 109.23522, -7.3334291 ], [ 109.2352211, -7.3334496 ], [ 109.2352007, -7.3334507 ] ] ] } },
{ "type": "Feature", "properties": { "element": "way", "id": 885163316, "amenity": "dentist", "designation": null, "emergency": null, "name": "Klinik Gigi Joy Dental", "addr:city": null, "addr:district": null, "addr:neighbourhood": null, "addr:postcode": null, "addr:province": null, "addr:street": null, "addr:subdistrict": null, "healthcare": "dentist", "healthcare:speciality": null, "website": null, "addr:housenumber": null, "mobile": null, "operator": null, "name:en": null, "opening_hours": null, "phone": null, "operator:type": null, "start_date": null, "contact:facebook": null, "email": null, "building": "yes", "source": null, "contact:phone": null, "health_amenity:type": null, "insurance:health": null, "operational_status": null, "url": null, "addr:full": null, "building:levels": null, "description": null, "wikidata": null, "wikipedia": null, "beds": null, "dispensing": null }, "geometry": { "type": "Polygon", "coordinates": [ [ [ 109.2436266, -7.4304776 ], [ 109.2437111, -7.4304776 ], [ 109.24371, -7.4305599 ], [ 109.2436266, -7.4305587 ], [ 109.2436266, -7.4304776 ] ] ] } },
{ "type": "Feature", "properties": { "element": "way", "id": 929382930, "amenity": null, "designation": null, "emergency": null, "name": "Klinik PMI Purwokerto", "addr:city": null, "addr:district": null, "addr:neighbourhood": null, "addr:postcode": null, "addr:province": null, "addr:street": null, "addr:subdistrict": null, "healthcare": "blood_donation", "healthcare:speciality": null, "website": null, "addr:housenumber": null, "mobile": null, "operator": null, "name:en": null, "opening_hours": null, "phone": null, "operator:type": null, "start_date": null, "contact:facebook": null, "email": null, "building": "yes", "source": null, "contact:phone": null, "health_amenity:type": null, "insurance:health": null, "operational_status": null, "url": null, "addr:full": null, "building:levels": null, "description": null, "wikidata": null, "wikipedia": null, "beds": null, "dispensing": null }, "geometry": { "type": "Polygon", "coordinates": [ [ [ 109.2391092, -7.4236445 ], [ 109.2392682, -7.4236652 ], [ 109.2392596, -7.42373 ], [ 109.2392004, -7.4237349 ], [ 109.2391955, -7.4237752 ], [ 109.2392226, -7.4237801 ], [ 109.2392115, -7.4239011 ], [ 109.2391967, -7.4239634 ], [ 109.2392842, -7.4239769 ], [ 109.2392793, -7.4241859 ], [ 109.239161, -7.4241553 ], [ 109.2391795, -7.4240111 ], [ 109.2390377, -7.4239854 ], [ 109.2391092, -7.4236445 ] ] ] } },
{ "type": "Feature", "properties": { "element": "way", "id": 929382932, "amenity": "hospital", "designation": null, "emergency": null, "name": "Puskesmas Purwokerto Timur 2", "addr:city": null, "addr:district": null, "addr:neighbourhood": null, "addr:postcode": null, "addr:province": null, "addr:street": null, "addr:subdistrict": null, "healthcare": "hospital", "healthcare:speciality": null, "website": null, "addr:housenumber": null, "mobile": null, "operator": null, "name:en": null, "opening_hours": null, "phone": null, "operator:type": null, "start_date": null, "contact:facebook": null, "email": null, "building": "yes", "source": null, "contact:phone": null, "health_amenity:type": null, "insurance:health": null, "operational_status": null, "url": null, "addr:full": null, "building:levels": null, "description": null, "wikidata": null, "wikipedia": null, "beds": null, "dispensing": null }, "geometry": { "type": "Polygon", "coordinates": [ [ [ 109.2393175, -7.423939 ], [ 109.2394272, -7.4239683 ], [ 109.2393988, -7.4242115 ], [ 109.2392793, -7.4241859 ], [ 109.2393175, -7.423939 ] ] ] } },
{ "type": "Feature", "properties": { "element": "way", "id": 951311867, "amenity": "hospital", "designation": null, "emergency": null, "name": "RSIA Budhi Asih", "addr:city": "Banyumas", "addr:district": "Purwokerto Selatan", "addr:neighbourhood": null, "addr:postcode": "53141", "addr:province": "Jawa Tengah", "addr:street": "Jalan Perintis Kemerdekaan", "addr:subdistrict": "Purwokerto Kulon", "healthcare": "hospital", "healthcare:speciality": "emergency", "website": null, "addr:housenumber": "30 B", "mobile": "0281641310", "operator": "Yayasan Budhi Asih", "name:en": null, "opening_hours": null, "phone": null, "operator:type": "private_non_profit", "start_date": null, "contact:facebook": null, "email": null, "building": "hospital", "source": null, "contact:phone": null, "health_amenity:type": null, "insurance:health": null, "operational_status": null, "url": null, "addr:full": null, "building:levels": null, "description": null, "wikidata": null, "wikipedia": null, "beds": null, "dispensing": null }, "geometry": { "type": "Polygon", "coordinates": [ [ [ 109.2407951, -7.4332228 ], [ 109.240808, -7.4334615 ], [ 109.2409214, -7.4334554 ], [ 109.240917, -7.433374 ], [ 109.2409268, -7.4333735 ], [ 109.240961, -7.4333716 ], [ 109.2409581, -7.4333188 ], [ 109.2409232, -7.4333207 ], [ 109.2409207, -7.4332759 ], [ 109.2408997, -7.433277 ], [ 109.2408965, -7.4332174 ], [ 109.2407951, -7.4332228 ] ] ] } },
{ "type": "Feature", "properties": { "element": "way", "id": 951813114, "amenity": "clinic", "designation": null, "emergency": null, "name": "KLINIK RAWAT INAP AMANDA", "addr:city": "Banyumas", "addr:district": "Purwokerto Timur", "addr:neighbourhood": null, "addr:postcode": "53111", "addr:province": "Jawa Tengah", "addr:street": "Jalan Martadiredja II", "addr:subdistrict": "Mersi", "healthcare": "clinic", "healthcare:speciality": "pulmonology", "website": null, "addr:housenumber": "32", "mobile": null, "operator": "Amanda", "name:en": null, "opening_hours": "24/7", "phone": null, "operator:type": null, "start_date": null, "contact:facebook": null, "email": null, "building": "clinic", "source": null, "contact:phone": null, "health_amenity:type": null, "insurance:health": null, "operational_status": null, "url": null, "addr:full": null, "building:levels": null, "description": null, "wikidata": null, "wikipedia": null, "beds": null, "dispensing": null }, "geometry": { "type": "Polygon", "coordinates": [ [ [ 109.2609249, -7.4231998 ], [ 109.2609705, -7.4232842 ], [ 109.2609348, -7.4233062 ], [ 109.2609536, -7.4233589 ], [ 109.2611972, -7.4232757 ], [ 109.2611448, -7.4231247 ], [ 109.2609249, -7.4231998 ] ] ] } },
{ "type": "Feature", "properties": { "element": "way", "id": 1368037692, "amenity": "clinic", "designation": null, "emergency": null, "name": "Klinik Pratama Yos Sudarso", "addr:city": "Banyumas", "addr:district": "Sokaraja", "addr:neighbourhood": "Dusun II", "addr:postcode": "53181", "addr:province": "Jawa Tengah", "addr:street": "Jalan Sidodadi II", "addr:subdistrict": "Sokaraja Tengah", "healthcare": "clinic", "healthcare:speciality": "general", "website": null, "addr:housenumber": "07", "mobile": null, "operator": "Klinik Pratama Yos Sudarso", "name:en": null, "opening_hours": "Mo-Su 08:00-19:30", "phone": null, "operator:type": null, "start_date": null, "contact:facebook": null, "email": null, "building": "clinic", "source": null, "contact:phone": null, "health_amenity:type": null, "insurance:health": null, "operational_status": null, "url": null, "addr:full": null, "building:levels": null, "description": null, "wikidata": null, "wikipedia": null, "beds": null, "dispensing": null }, "geometry": { "type": "Polygon", "coordinates": [ [ [ 109.2848434, -7.4557156 ], [ 109.2850372, -7.4556707 ], [ 109.2850163, -7.4555641 ], [ 109.2848159, -7.4555864 ], [ 109.2848434, -7.4557156 ] ] ] } }
]
}
